ONEWEB-0208             
1 48243U 21031AK  24294.78475350  .00000208  00000+0  52762-3 0  9992
2 48243  87.9011  49.8861 0001648  93.4368 266.6950 13.14505066168906
ONEWEB-0200             
1 48244U 21031AL  24294.74828135 -.00000119  00000+0 -35509-3 0  9995
2 48244  87.9014  49.8894 0001818  92.9072 267.2266 13.14501471168836
ONEWEB-0217             
1 48245U 21031AM  24294.76413649  .00000178  00000+0  44541-3 0  9997
2 48245  87.9008  49.8704 0001780  87.3370 272.7963 13.14502022168778
ONEWEB-0211             
1 48767U 21045A   24294.74349682 -.00000017  00000+0 -79667-4 0  9996
2 48767  87.9123  19.4807 0002042  99.0004 261.1357 13.15546755164944
ONEWEB-0223             
1 48768U 21045B   24294.76569594  .00000143  00000+0  34498-3 0  9995
2 48768  87.9126  19.4875 0002400  98.9428 261.1974 13.15549653164933
ONEWEB-0230             
1 48769U 21045C   24294.73715557 -.00000110  00000+0 -32727-3 0  9994
2 48769  87.9127  19.5625 0001918 103.9219 256.2124 13.15546999165198
ONEWEB-0237             
1 48770U 21045D   24294.80212375 -.00000009  00000+0 -58222-4 0  9990
2 48770  87.9131  19.4875 0002167  98.9938 261.1437 13.15548525164928
ONEWEB-0235             
1 48771U 21045E   24294.77676260  .00000159  00000+0  38882-3 0  9997
2 48771  87.9126  19.4929 0002579 100.5929 259.5492 13.15551290164914
ONEWEB-0242             
1 48772U 21045F   24294.77043166  .00000132  00000+0  31633-3 0  9999
2 48772  87.9123  19.4816 0002068 103.2537 256.8824 13.15546051164957
ONEWEB-0241             
1 48773U 21045G   24294.75775672  .00000096  00000+0  21981-3 0  9996
2 48773  87.9133  19.5430 0002090  91.7176 268.4193 13.15546941164863
ONEWEB-0243             
1 48774U 21045H   24294.78943923  .00000028  00000+0  41631-4 0  9996
2 48774  87.9136  19.4962 0002339 111.5518 248.5862 13.15546540164893
ONEWEB-0222             
1 48775U 21045J   24294.77281380  .00000192  00000+0  47631-3 0  9995
2 48775  87.9124  19.4901 0002050  96.5629 263.5734 13.15548714164934
ONEWEB-0244             
1 48776U 21045K   24294.79894917 -.00000087  00000+0 -26514-3 0  9996
2 48776  87.9120  19.4652 0001993 105.1669 254.9682 13.15548837165506
ONEWEB-0247             
1 48777U 21045L   24294.79578679 -.00000018  00000+0 -80960-4 0  9991
2 48777  87.9128  19.5165 0002866 103.9995 256.1454 13.15548301164947
ONEWEB-0245             
1 48778U 21045M   24294.79102141 -.00000059  00000+0 -19160-3 0  9997
2 48778  87.9124  19.4992 0001958  93.3663 266.7691 13.15542672164918
ONEWEB-0229             
1 48779U 21045N   24294.78627160  .00000049  00000+0  96118-4 0  9996
2 48779  87.9125  19.4956 0001968 102.4602 257.6749 13.15546088164947
ONEWEB-0228             
1 48780U 21045P   24294.74268423  .00000000  00000+0 -34194-4 0  9991
2 48780  87.9121  19.4849 0001964 101.4247 258.7104 13.15550789164856
ONEWEB-0232             
1 48781U 21045Q   24294.79420238 -.00000046  00000+0 -15715-3 0  9999
2 48781  87.9117  19.4822 0001897 100.3675 259.7669 13.15546519165181
ONEWEB-0231             
1 48782U 21045R   24294.77200856  .00000621  00000+0  16162-2 0  9993
2 48782  87.9131  19.5355 0001757 105.6433 254.4891 13.15549638166012
ONEWEB-0234             
1 48783U 21045S   24294.79182249 -.00000075  00000+0 -23231-3 0  9992
2 48783  87.9126  19.4811 0001162  57.5192 302.6050 13.15546905165016
ONEWEB-0238             
1 48784U 21045T   24294.74586134  .00000028  00000+0  40005-4 0  9994
2 48784  87.9123  19.5075 0001643  98.0223 262.1094 13.15545874164905
ONEWEB-0240             
1 48785U 21045U   24294.75536042 -.00000153  00000+0 -44088-3 0  9994
2 48785  87.9122  19.4723 0002105  91.4525 268.6847 13.15550624164939
ONEWEB-0246             
1 48786U 21045V   24294.74982961  .00000042  00000+0  77535-4 0  9998
2 48786  87.9124  19.4799 0001978 102.7029 257.4323 13.15547271164802
ONEWEB-0210             
1 48787U 21045W   24294.80053147 -.00000027  00000+0 -10694-3 0  9998
2 48787  87.9123  19.4726 0002543 108.5768 251.5639 13.15546767164854
ONEWEB-0214             
1 48788U 21045X   24294.73398930 -.00000095  00000+0 -28749-3 0  9998
2 48788  87.9125  19.4753 0002350 111.0635 249.0747 13.15546985164815
ONEWEB-0221             
1 48789U 21045Y   24294.74032608 -.00000060  00000+0 -19361-3 0  9999
2 48789  87.9130  19.4954 0002030  97.1575 262.9786 13.15547353164904
ONEWEB-0213             
1 48790U 21045Z   24294.80529478 -.00000120  00000+0 -35374-3 0  9993
2 48790  87.9123  19.4934 0002155  98.8746 261.2628 13.15547744164970
ONEWEB-0212             
1 48791U 21045AA  24294.78231706  .00000135  00000+0  32589-3 0  9994
2 48791  87.9130  19.4834 0001754  97.6649 262.4681 13.15547044164965
ONEWEB-0227             
1 48792U 21045AB  24294.78152644  .00000044  00000+0  82557-4 0  9998
2 48792  87.9127  19.4978 0001966  97.6647 262.4707 13.15547434164911
ONEWEB-0226             
1 48793U 21045AC  24294.77517784 -.00000288  00000+0 -79877-3 0  9990
2 48793  87.9125  19.5048 0002282 103.7565 256.3819 13.15548058164884
ONEWEB-0224             
1 48794U 21045AD  24294.73873970 -.00000056  00000+0 -18290-3 0  9994
2 48794  87.9129  19.5382 0002228  71.6226 288.5146 13.15547173164806
ONEWEB-0233             
1 48795U 21045AE  24294.74428262 -.00000008  00000+0 -54282-4 0  9995
2 48795  87.9128  19.5504 0002067  93.6474 266.4893 13.15552028164823
ONEWEB-0190             
1 48796U 21045AF  24295.18715500 -.00004415  00000+0 -11765-1 0  9991
2 48796  87.9132  19.4219 0003018  94.5571 265.5904 13.15567977166077
ONEWEB-0236             
1 48797U 21045AG  24294.74823251 -.00000190  00000+0 -53973-3 0  9991
2 48797  87.9130  19.5087 0001852  95.1772 264.9570 13.15550598165908
ONEWEB-0248             
1 48798U 21045AH  24294.76092456  .00000166  00000+0  40766-3 0  9996
2 48798  87.9119  19.4859 0002418  85.7527 274.3880 13.15546359164946
ONEWEB-0225             
1 48799U 21045AJ  24294.78311155  .00000109  00000+0  25677-3 0  9990
2 48799  87.9130  19.4995 0002211  97.0571 263.0811 13.15547074164952
ONEWEB-0215             
1 48800U 21045AK  24294.75300251  .00000042  00000+0  78307-4 0  9990
2 48800  87.9123  19.4727 0002536  89.9893 270.1527 13.15546672164829
ONEWEB-0216             
1 48801U 21045AL  24294.76250909  .00000112  00000+0  26257-3 0  9990
2 48801  87.9122  19.5132 0001943 107.4637 252.6706 13.15545880164838
ONEWEB-0239             
1 48802U 21045AM  24294.76726197  .00000171  00000+0  42054-3 0  9996
2 48802  87.9132  19.4990 0002558  84.0151 276.1271 13.15545828164879
ONEWEB-0249             
1 48967U 21060A   24294.72428058  .00000048  00000+0  91958-4 0  9997
2 48967  87.9137 349.1859 0001767  95.4739 264.6593 13.16593824160079
ONEWEB-0250             
1 48968U 21060B   24294.63321173  .00000004  00000+0 -20415-4 0  9991
2 48968  87.9140 348.9303 0002513  81.1989 278.9431 13.25627892160111
ONEWEB-0252             
1 48970U 21060D   24294.67998887 -.00003469  00000+0 -91162-2 0  9994
2 48970  87.9163 349.1888 0002097 102.0725 258.0641 13.16562344160110
ONEWEB-0253             
1 48971U 21060E   24294.66886110 -.00000065  00000+0 -20351-3 0  9991
2 48971  87.9138 349.2001 0002197  97.7620 262.3760 13.16590953160045
ONEWEB-0254             
1 48972U 21060F   24294.67837007  .00000089  00000+0  19918-3 0  9995
2 48972  87.9140 349.1778 0002371  90.2117 269.9286 13.16592314160041
ONEWEB-0255             
1 48973U 21060G   24294.71636721 -.00000006  00000+0 -48922-4 0  9990
2 48973  87.9139 349.2041 0002163  91.7296 268.4082 13.16592246160128
ONEWEB-0256             
1 48974U 21060H   24294.66648430 -.00000001  00000+0 -37378-4 0  9993
2 48974  87.9143 349.2216 0001835 103.3682 256.7654 13.16594712160082
ONEWEB-0257             
1 48975U 21060J   24294.69895251  .00000024  00000+0  28364-4 0  9990
2 48975  87.9141 349.1824 0002046 101.0429 259.0932 13.16593546160049
ONEWEB-0258             
1 48976U 21060K   24294.70051810 -.00000095  00000+0 -28330-3 0  9990
2 48976  87.9144 349.2100 0001912  95.3567 264.7782 13.16592795160052
ONEWEB-0259             
1 48977U 21060L   24294.69419541  .00000053  00000+0  10469-3 0  9994
2 48977  87.9141 349.1958 0002005  90.2579 269.8782 13.16591584160085
ONEWEB-0260             
1 48978U 21060M   24294.68547019  .00000134  00000+0  31813-3 0  9992
2 48978  87.9140 349.2268 0002071 113.0325 247.1025 13.16596445160064
ONEWEB-0261             
1 48979U 21060N   24294.65462071 -.00000248  00000+0 -68333-3 0  9999
2 48979  87.9132 349.2314 0003170  96.6236 263.5256 13.16591794160112
ONEWEB-0262             
1 48980U 21060P   24294.71160601 -.00000046  00000+0 -15463-3 0  9994
2 48980  87.9141 349.1788 0002156  88.5379 271.5999 13.16591730160088
ONEWEB-0263             
1 48981U 21060Q   24294.66728655 -.00000099  00000+0 -29274-3 0  9991
2 48981  87.9145 349.2084 0002441  94.9577 265.1832 13.16596766160046
ONEWEB-0264             
1 48982U 21060R   24294.70449308 -.00000112  00000+0 -32679-3 0  9991
2 48982  87.9145 349.2110 0002027  97.2564 262.8797 13.16592604160051
ONEWEB-0266             
1 48984U 21060T   24294.64987233 -.00000083  00000+0 -25090-3 0  9996
2 48984  87.9143 349.1968 0001836  94.2633 265.8708 13.16592445160038
ONEWEB-0267             
1 48985U 21060U   24294.66096358  .00000659  00000+0  16897-2 0  9999
2 48985  87.9135 349.1956 0002389 100.4370 259.7030 13.16588602160040
ONEWEB-0268             
1 48986U 21060V   24294.70528095  .00000029  00000+0  42212-4 0  9996
2 48986  87.9140 349.1932 0001940 102.7778 257.3570 13.16593542160312
ONEWEB-0269             
1 48987U 21060W   24294.68627571 -.00000020  00000+0 -85214-4 0  9995
2 48987  87.9142 349.2263 0001841 100.0929 260.0410 13.16591737160084
ONEWEB-0270             
1 48988U 21060X   24294.70370200  .00000050  00000+0  96943-4 0  9995
2 48988  87.9139 349.2005 0002329  92.0133 268.1264 13.16593361160120
